ONEWEB-0613             
1 56071U 23043AB  24039.57907240 -.00000042  00000+0 -14646-3 0  9994
2 56071  87.8952  70.3070 0002295  90.5321 269.6072 13.15550013 43413
ONEWEB-0630             
1 56072U 23043AC  24039.57433130 -.00000087  00000+0 -26521-3 0  9991
2 56072  87.8951  70.3035 0002201  85.3890 274.7491 13.15547843 43402
ONEWEB-0632             
1 56073U 23043AD  24039.56956933 -.00000097  00000+0 -29142-3 0  9995
2 56073  87.8951  70.3226 0002233 102.1596 257.9785 13.15546935 43401
ONEWEB-0633             
1 56074U 23043AE  24039.56323669 -.00000048  00000+0 -16100-3 0  9996
2 56074  87.8948  70.3104 0002243  79.5509 280.5874 13.15548425 43389
ONEWEB-0634             
1 56075U 23043AF  24039.54897129  .00000050  00000+0  98374-4 0  9997
2 56075  87.8954  70.3158 0001576  83.5665 276.5645 13.15547403 43377
ONEWEB-0635             
1 56076U 23043AG  24039.54421669  .00000134  00000+0  32316-3 0  9996
2 56076  87.8951  70.3752 0002242 104.6825 255.4554 13.15550155 43406
ONEWEB-0636             
1 56077U 23043AH  24039.61236084  .00000213  00000+0  53051-3 0  9997
2 56077  87.8951  70.3305 0002035 105.1809 254.9546 13.15547236 43398
ONEWEB-0637             
1 56078U 23043AJ  24039.60601397  .00000179  00000+0  44049-3 0  9998
2 56078  87.8952  70.3064 0002132 107.5732 252.5631 13.15550125 43414
